GLOBALSTAR M045         
1 25676U 99019A   24352.60384743 -.00000064  00000+0  26488-3 0  9996
2 25676  51.9964 102.8161 0000969 143.7241 229.3026 12.27053488171101
GLOBALSTAR M019         
1 25677U 99019B   24352.60809316  .00000088  00000+0  18570-2 0  9992
2 25677  51.9861 220.3949 0001251  18.6626   1.3374 12.13869585163091
GLOBALSTAR M044         
1 25678U 99019C   24352.52806135 -.00000095  00000+0 -15151-3 0  9993
2 25678  51.9939 149.2499 0007459  59.6371 328.7197 11.90245464149692
GLOBALSTAR M042         
1 25679U 99019D   24352.56597144 -.00000029  00000+0  59101-3 0  9994
2 25679  51.9986 203.6734 0001821 298.0286  96.5690 12.22075128163051
GLOBALSTAR M025         
1 25770U 99031A   24352.55570397 -.00000034  00000+0  10216-2 0  9999
2 25770  51.9790 220.0349 0001203 145.7566 240.3920 11.22558034461310
GLOBALSTAR M049         
1 25771U 99031B   24352.42800724 -.00000039  00000+0  90884-3 0  9991
2 25771  51.9863 245.9594 0004461  67.7805 292.3465 11.12111477 97207
GLOBALSTAR M047         
1 25772U 99031C   24352.50032534 -.00000038  00000+0  88676-3 0  9992
2 25772  51.9833 260.1241 0016133 314.4635  45.4851 11.31925779450539
GLOBALSTAR M052         
1 25773U 99031D   24352.53938681 -.00000106  00000+0 -13590-2 0  9993
2 25773  51.9898 356.9364 0002442 230.5267 274.1589 11.15055846458244
